[
    {
        "zipcode": 94102,
        "district": "Hayes Valley"
    },
    {
        "zipcode": 94103,
        "district": "SoMa"
    },
    {
        "zipcode": 94104,
        "district": "Financial District"
    },
    {
        "zipcode": 94105,
        "district": "Embarcadero South"
    },
    {
        "zipcode": 94107,
        "district": "Portrero Hill"
    },
    {
        "zipcode": 94108,
        "district": "Chinatown"
    },
    {
        "zipcode": 94109,
        "district": "SF/Nob & Russian Hill"
    },
    {
        "zipcode": 94110,
        "district": "Mission District"
    },
    {
        "zipcode": 94111,
        "district": "Embarcadero North"
    },
    {
        "zipcode": 94112,
        "district": "Ingleside"
    },
    {
        "zipcode": 94114,
        "district": "Castro"
    },
    {
        "zipcode": 94115,
        "district": "Western Addition/Pacific Heights"
    },
    {
        "zipcode": 94116,
        "district": "Outter Sunset"
    },
    {
        "zipcode": 94117,
        "district": "Height District/Cole Valley"
    },
    {
        "zipcode": 94118,
        "district": "Richmond District"
    },
    {
        "zipcode": 94121,
        "district": "Outter Richmond"
    },
    {
        "zipcode": 94122,
        "district": "Sunset District"
    },
    {
        "zipcode": 94123,
        "district": "Cow Hollow/Marina District"
    },
    {
        "zipcode": 94124,
        "district": "Bayview"
    },
    {
        "zipcode": 94127,
        "district": "St. Francis Wood"
    },
    {
        "zipcode": 94129,
        "district": "Presidio"
    },
    {
        "zipcode": 94130,
        "district": "Treasure Island"
    },
    {
        "zipcode": 94131,
        "district": "Twin Peaks"
    },
    {
        "zipcode": 94132,
        "district": "Lake Merced"
    },
    {
        "zipcode": 94133,
        "district": "North Beach/Fisherman's Wharf"
    },
    {
        "zipcode": 94134,
        "district": "Portola/Visitacion Valley"
    },
    {
        "zipcode": 94158,
        "district": "Mission Bay"
    }
]